Id,Start,End,Current,Title,Address,Showman,City,Image,Label,Lat,Lng,Related,URL
https://curiositas.ulusofona.pt/timeline/,1818,1819,1818,Gabinete de Física de Mr. Robinson / Câmara escura e Cosmorama,"Cais do Sodré, n3",Étienne-Gaspard Robert,Lisboa,L1,"Gazeta de Lisboa, 1 de January de 1819",38.70609511542835,-9.144027964596502,2.0,https://curiositas.ulusofona.pt/wp-content/plugins/curiositas-timeline/images/lisboa/L1.png
https://curiositas.ulusofona.pt/timeline/,1821,1821,1821,Gabinete de Física de Mr. Robinson / Câmara escura e Cosmorama,Calle del Prado,Étienne-Gaspard Robert,Madrid,M22,"Diário de Madrid, 14 de August de 1821",40.41496868998127,-3.696856852467576,1.0,https://curiositas.ulusofona.pt/wp-content/plugins/curiositas-timeline/images/madrid/M22.png
https://curiositas.ulusofona.pt/timeline/,1821,1821,1821,Cosmorama,"St James’ Street, n29",,London,Lon1,"Blunt, C. Popular description of the cosmorama', La Belle Assemblée, nº155, vol. 24 November 1821, p.233 - It represents the cosmorama in 29 St James Street",51.507030681796,-0.139561467186957,,https://curiositas.ulusofona.pt/wp-content/plugins/curiositas-timeline/images/london/Lon1.png
https://curiositas.ulusofona.pt/timeline/,1821,1821,1821,New Cosmoramic exhibition,Centro Histórico de Edinburgh,,Edinburgh,E1,"Caledonian Mercury, 29 December 1821",55.9533933818366,-3.1883980560841114,,https://curiositas.ulusofona.pt/wp-content/plugins/curiositas-timeline/images/edinburgh/E1.png
https://curiositas.ulusofona.pt/timeline/,1822,1822,1822,Cosmorama,Vauxhall Gardens,,London,Lon11,"Leeds Intelligencer, 24 June1822",51.487538609490855,-0.1209629591567134,,https://curiositas.ulusofona.pt/wp-content/plugins/curiositas-timeline/images/london/Lon11.png
https://curiositas.ulusofona.pt/timeline/,1823,1823,1823,Cosmorama,"Regent Street, n207-209",,London,Lon2,"Bell's Weekly Messenger, 15 June1823",51.51331503978345,-0.1410980475625256,,https://curiositas.ulusofona.pt/wp-content/plugins/curiositas-timeline/images/london/Lon2.png
https://curiositas.ulusofona.pt/timeline/,1824,1824,1824,The Dioramic and Cosmoramic Naturorama,"Lord-Street, n47",,Liverpool,Liv14,"Liverpool Mercury, 20 August 1824",53.405467578726864,-2.987990200933366,,https://curiositas.ulusofona.pt/wp-content/plugins/curiositas-timeline/images/liverpool/Liv14.png
https://curiositas.ulusofona.pt/timeline/,1825,1825,1825,Cosmorama,"Quebec, perto de Coloured Cloth Hall",Lloyd,Leeds,Lee2,"Leeds Mercury, 19 November 1825",53.7965742234931,-1.5479148875218869,,https://curiositas.ulusofona.pt/wp-content/plugins/curiositas-timeline/images/leeds/Lee2.png
https://curiositas.ulusofona.pt/timeline/,1825,1825,1825,Cosmorama Views,Vauxhall Gardens,,London,Lon10,"Caledonian Mercury, 11 July 1825",51.487538609490855,-0.1209629591567134,,https://curiositas.ulusofona.pt/wp-content/plugins/curiositas-timeline/images/london/Lon10.png
https://curiositas.ulusofona.pt/timeline/,1826,1826,1826,Poecilorama,Egyptian Hall,,London,Lon3,"New Times (London), 06 November",51.507992647082986,-0.1395539435784113,,https://curiositas.ulusofona.pt/wp-content/plugins/curiositas-timeline/images/london/Lon3.png
https://curiositas.ulusofona.pt/timeline/,1827,1827,1827,Cosmorama,Bold Street n100,J. Borthwic,Liverpool,Liv1,"Liverpool Albion, 27 August 1827",53.40248657591928,-2.9773173906611383,12.0,https://curiositas.ulusofona.pt/wp-content/plugins/curiositas-timeline/images/liverpool/Liv1.png
https://curiositas.ulusofona.pt/timeline/,1828,1828,1828,The Press Gang,Bold Street (bottom),J. Borthwic,Liverpool,Liv2,"Liverpool Albion, 17 July 1828",53.40334016182554,-2.9786843148846742,11.0,https://curiositas.ulusofona.pt/wp-content/plugins/curiositas-timeline/images/liverpool/Liv2.png
https://curiositas.ulusofona.pt/timeline/,1828,1830,1828,Cosmorama,Calle del Caballero de Gracia (Café de Malta),Juan Poret,Madrid,M1,"Diario de Avisos de Madrid, 8 September 1828",40.41931713436653,-3.699736600174675,,https://curiositas.ulusofona.pt/wp-content/plugins/curiositas-timeline/images/madrid/M1.png
https://curiositas.ulusofona.pt/timeline/,1828,1828,1828,Galeria Optica,,Thomas Karl Andorfer,Bergamo,BER1,"Giornale D'Indizj della Provincia di Bergamo, 11 September 1828",45.695,9.67,15.0,https://curiositas.ulusofona.pt/wp-content/plugins/curiositas-timeline/images/bergamo/BER1.png
https://curiositas.ulusofona.pt/timeline/,1828,1828,1828,Galeria Optica,,Thomas Karl Andorfer,Verona,VER1,"Foglio di Verona, 17 October 1828",45.433334,10.983333,16.0,https://curiositas.ulusofona.pt/wp-content/plugins/curiositas-timeline/images/verona/VER1.png
https://curiositas.ulusofona.pt/timeline/,1829,1829,1829,Galeria Optica,,Thomas Karl Andorfer,Milão,MIL1,"I Teatri Giornale drammatico musicale e coregrafico. Red. G. Ferrario e G. Barbieri, Volume 3, 1829",45.4637,9.18817,17.0,https://curiositas.ulusofona.pt/wp-content/plugins/curiositas-timeline/images/milao/MIL1.png
https://curiositas.ulusofona.pt/timeline/,1829,1829,1829,Cosmorama,,Thomas Karl Andorfer,Brescia,BRE1,"Giornale Della Provincia Bresciana, 2 January 1829",45.541553,10.211802,23.0,https://curiositas.ulusofona.pt/wp-content/plugins/curiositas-timeline/images/brescia/BRE1.png
https://curiositas.ulusofona.pt/timeline/,1829,1829,1829,Vauxhall Gardens,Vauxhall Gardens,,London,Lon4,"Morning Post, 21 July1829",51.487538609490855,-0.1209629591567134,,https://curiositas.ulusofona.pt/wp-content/plugins/curiositas-timeline/images/london/Lon4.png
https://curiositas.ulusofona.pt/timeline/,1829,1830,1829,Cosmorama,"Long Gallery, Royal Arcade",,Dublin,D1,"Dublin Morning Register, 26 November",53.344217892899,-6.260083426086128,,https://curiositas.ulusofona.pt/wp-content/plugins/curiositas-timeline/images/dublin/D1.png
https://curiositas.ulusofona.pt/timeline/,1829,1832,1829,Diorama and Cosmorama,Lothian Road,,Edinburgh,E2,"The Scotsman, 18 May 1831",55.94757121136997,-3.2061015059677365,,https://curiositas.ulusofona.pt/wp-content/plugins/curiositas-timeline/images/edinburgh/E2.png
https://curiositas.ulusofona.pt/timeline/,1830,1830,1830,Udorama and Cosmorama,"Saville House Bazaar, Leicester Square",Dalberg,London,Lon5,"Weekly Times (London) , 04 April 1830",51.510908918814415,-0.1301397856007725,,https://curiositas.ulusofona.pt/wp-content/plugins/curiositas-timeline/images/london/Lon5.png
https://curiositas.ulusofona.pt/timeline/,1830,1830,1830,Cosmorama,"Rambla, n27",Saurach,Barcelona,B11,"Diário de Barcelona, 22 April 1830",41.378453542780015,2.175040749986872,,https://curiositas.ulusofona.pt/wp-content/plugins/curiositas-timeline/images/barcelona/B11.png
https://curiositas.ulusofona.pt/timeline/,1830,1830,1830,Galeria Optica,,Thomas Karl Andorfer,Pavia,PAV1,"La Minerva Ticinese- Giornale di Scienze, Lettere, Arti, Varieta', 6 January 1830",45.183334,9.15,24.0,https://curiositas.ulusofona.pt/wp-content/plugins/curiositas-timeline/images/pavia/PAV1.png
https://curiositas.ulusofona.pt/timeline/,1830,1830,1830,Cosmorama,,Thomas Karl Andorfer,Bergamo,BER2,"Giornale d'indizi giudiziarj della provincia di Bergamo, 30 August 1830",45.695,9.67,28.0,https://curiositas.ulusofona.pt/wp-content/plugins/curiositas-timeline/images/bergamo/BER2.png
https://curiositas.ulusofona.pt/timeline/,1830,1832,1830,The Diorama,Bold Street,,Liverpool,Liv3,"Liverpool Albion, 12 March 1832",53.40334016182554,-2.9786843148846742,,https://curiositas.ulusofona.pt/wp-content/plugins/curiositas-timeline/images/liverpool/Liv3.png
https://curiositas.ulusofona.pt/timeline/,1830,1830,1830,Cosmorama,Centro Histórico de Barcelona,,Barcelona,B18,"Diario de Barcelona, 15 May 1830",41.380853324701896,2.1730525200013293,,https://curiositas.ulusofona.pt/wp-content/plugins/curiositas-timeline/images/barcelona/B18.png
https://curiositas.ulusofona.pt/timeline/,1831,1831,1831,,,Nicolino Calyo,Malta,nophoto,,35.917973,14.409943,34.0,
https://curiositas.ulusofona.pt/timeline/,1831,1831,1831,Galeria Optica,,Thomas Karl Andorfer,Mantova,MAN1,"Foglio d'Annunzj della Gazetta di Mantova, 4 January 1831",45.156417,10.791375,47.0,https://curiositas.ulusofona.pt/wp-content/plugins/curiositas-timeline/images/mantova/MAN1.png
https://curiositas.ulusofona.pt/timeline/,1832,1832,1832,Templo de Ilusión — Neorama de Paris,"Rambla, n3",Menatory,Barcelona,B2,"Diário de Barcelona, 10 May 1832",41.37683243938591,2.1764168090130385,45.0,https://curiositas.ulusofona.pt/wp-content/plugins/curiositas-timeline/images/barcelona/B2.png
https://curiositas.ulusofona.pt/timeline/,1832,1832,1832,Diorama,Bold Street,,Liverpool,Liv15,"Liverpool Mercury, 8 June 1832",53.40331809890992,-2.978693049861022,,https://curiositas.ulusofona.pt/wp-content/plugins/curiositas-timeline/images/liverpool/Liv15.png
https://curiositas.ulusofona.pt/timeline/,1832,1832,1832,Physiorama and British Diorama,Oxford Street (Queen’s Bazaar),,London,Lon6,"New Times (London), 29 Abril 1830",51.51592621549037,-0.1378124927142978,,https://curiositas.ulusofona.pt/wp-content/plugins/curiositas-timeline/images/london/Lon6.png
https://curiositas.ulusofona.pt/timeline/,1833,1833,1833,Cosmorama,Calle del Caballero de Gracia,Domenico Lusardi,Madrid,M2,Diario Avisos de Madrid 19 March de 1833,40.41931713436653,-3.699736600174675,38.0,https://curiositas.ulusofona.pt/wp-content/plugins/curiositas-timeline/images/madrid/M2.png
https://curiositas.ulusofona.pt/timeline/,1833,1835,1833,Neorama / Viage de Ilusión,"Calle San Pablo, n78, piso 1",Felipe Maglia,Barcelona,B4,"Diário de Barcelona, 5 May 1833",41.377650526271694,2.1702188248572,44.0,https://curiositas.ulusofona.pt/wp-content/plugins/curiositas-timeline/images/barcelona/B4.png
https://curiositas.ulusofona.pt/timeline/,1833,1833,1833,,,Nicolino Calyo,Granada,GRA2,"La revista Española, 2 August 1833",37.178055,-3.600833,53.0,https://curiositas.ulusofona.pt/wp-content/plugins/curiositas-timeline/images/granada/GRA2.png
https://curiositas.ulusofona.pt/timeline/,1833,1834,1833,Neorama o Viage de Ilusión,"Calle San Francisco de Asis, n14",,Barcelona,B5,"Diário de Barcelona, 21 July 1833",41.44919678299177,2.250469255153252,,https://curiositas.ulusofona.pt/wp-content/plugins/curiositas-timeline/images/barcelona/B5.png
https://curiositas.ulusofona.pt/timeline/,1833,1833,1833,Neorama,Centro Histórico de Valencia,,Valencia,V2,"Diario de Valencia, 27 January 1833",39.47341178802595,-0.3765008385541465,,https://curiositas.ulusofona.pt/wp-content/plugins/curiositas-timeline/images/valencia/V2.png
https://curiositas.ulusofona.pt/timeline/,1834,1834,1834,Gran Neorama de Paris,"Rambla, n4",Andrés Rancher,Barcelona,B3,"Diário de Barcelona, 10 August 1834",41.37708131202199,2.1768989203468454,,https://curiositas.ulusofona.pt/wp-content/plugins/curiositas-timeline/images/barcelona/B3.png
https://curiositas.ulusofona.pt/timeline/,1834,1834,1834,Cosmoneorama,"Calle de la Montera, n28",Domenico Lusardi,Madrid,M4,"Diario de Avisos de Madrid, 30 January 1834",40.41870608143895,-3.70213924812028,39.0,https://curiositas.ulusofona.pt/wp-content/plugins/curiositas-timeline/images/madrid/M4.png
https://curiositas.ulusofona.pt/timeline/,1834,1835,1834,Cosmoneorama,"Cais do Sodré, n19, piso 1",Domenico Lusardi,Lisboa,L2,"O Periódico dos Pobres, 13 March 1835",38.70540652810168,-9.14438960318784,40.0,https://curiositas.ulusofona.pt/wp-content/plugins/curiositas-timeline/images/lisboa/L2.png
https://curiositas.ulusofona.pt/timeline/,1834,1835,1834,Cosmoneorama,"Rua da Figueira, n8",Domenico Lusardi,Lisboa,L9,"O Periódico dos Pobres, 6 October 1834",38.71426320148409,-9.137513607103882,41.0,https://curiositas.ulusofona.pt/wp-content/plugins/curiositas-timeline/images/lisboa/L9.png
https://curiositas.ulusofona.pt/timeline/,1834,1835,1834,Gabinete de Cosmorama,Centro Histórico do Porto,Domenico Lusardi,Porto,P1,"Chronica Constitucional da Cidade do Porto, 9 December 1834",41.14194956913981,-8.616667,42.0,https://curiositas.ulusofona.pt/wp-content/plugins/curiositas-timeline/images/porto/P1.png
https://curiositas.ulusofona.pt/timeline/,1834,1835,1834,Cosmoneorama,"Rua de Santo António, n81, piso 1",Domenico Lusardi,Porto,P3,"Chronica Constitucional da Cidade do Porto, 23 December 1834",41.14625951462739,-8.60905024466826,32.0,https://curiositas.ulusofona.pt/wp-content/plugins/curiositas-timeline/images/porto/P3.png
https://curiositas.ulusofona.pt/timeline/,1834,1834,1834,Cosmorama,"Theatre, Leeds",Downe,Leeds,Lee4,"Leeds Times,16 August 1834",53.79281688102815,-1.5418858306885022,,https://curiositas.ulusofona.pt/wp-content/plugins/curiositas-timeline/images/leeds/Lee4.png
https://curiositas.ulusofona.pt/timeline/,1834,1834,1834,Neorama/ Viaje de Ilusión,"Calle de las Carasas, n2",Felipe Maglia,Palma de Mallorca,PM4,"Diário Balear nr59, 29 May 1834",39.571625,2.650544,81.0,https://curiositas.ulusofona.pt/wp-content/plugins/curiositas-timeline/images/palma-de-mallorca/PM4.png
https://curiositas.ulusofona.pt/timeline/,1834,1835,1834,Gran Cosmorama de Paris/ Cosmorama,"Calçada do Duque, n1, Piso 1",Menatory,Lisboa,L12,"O Periódico dos Pobres, 19 December 1834",38.71334484423354,-9.1409949171601,46.0,https://curiositas.ulusofona.pt/wp-content/plugins/curiositas-timeline/images/lisboa/L12.png
https://curiositas.ulusofona.pt/timeline/,1834,1835,1834,Gran Cosmorama de Paris/ Cosmorama,"Rua Nova do Almada, n35, piso 1 (Junto à Boa Hora)",Menatory,Lisboa,L8,"O Periódico dos Pobres, 15 November 1834",38.709554919077,-9.13918373194695,69.0,https://curiositas.ulusofona.pt/wp-content/plugins/curiositas-timeline/images/lisboa/L8.png
https://curiositas.ulusofona.pt/timeline/,1834,1834,1834,Plastischen Kunstcabinet,,Thomas Karl Andorfer,Salzburg,SAL1,"Salzburger Landszeitung, 17 June 1854",47.811195,13.033229,71.0,https://curiositas.ulusofona.pt/wp-content/plugins/curiositas-timeline/images/salzburg/SAL1.png
https://curiositas.ulusofona.pt/timeline/,1834,1840,1834,Diorama and Cosmorama,Lothian Road,,Edinburgh,E4,"The Scotsman, 09 June 1838",55.94757121136997,-3.2061015059677365,,https://curiositas.ulusofona.pt/wp-content/plugins/curiositas-timeline/images/edinburgh/E4.png
https://curiositas.ulusofona.pt/timeline/,1834,1834,1834,Cosmorama,"Calle Preciados, n4, piso baixo",,Madrid,M3,"Diario de Avisos de Madrid, 3 November 1834",40.41750480653397,-3.704193806943977,,https://curiositas.ulusofona.pt/wp-content/plugins/curiositas-timeline/images/madrid/M3.png
https://curiositas.ulusofona.pt/timeline/,1834,1841,1834,Cosmorama,"Rambla, n13 e n23",,Barcelona,B6,"Diario de Barcelona, 29 June 1834",41.37774335279123,2.175616365979673,,https://curiositas.ulusofona.pt/wp-content/plugins/curiositas-timeline/images/barcelona/B6.png
https://curiositas.ulusofona.pt/timeline/,1834,1834,1834,London Cosmoramas,"Prince’s Street, n54",,Edinburgh,E3,"The Scotsman, 01 November 1834",55.95265605193115,-3.1945146062232745,,https://curiositas.ulusofona.pt/wp-content/plugins/curiositas-timeline/images/edinburgh/E3.png
https://curiositas.ulusofona.pt/timeline/,1834,1835,1834,Cosmorama / The Lounge,"Lounge, Boar-Lane, n17",,Leeds,Lee3,"Leeds Times, 1 February 1834",53.79585483856072,-1.544372010621793,,https://curiositas.ulusofona.pt/wp-content/plugins/curiositas-timeline/images/leeds/Lee3.png
https://curiositas.ulusofona.pt/timeline/,1835,1835,1835,Calyo's Exhibition,Assembly Rooms (corner of Hollyday and Fayette Streets),Nicolino Calyo,Baltimore,BA1,"American and Commercial Daily Advertiser, 20 April 1835",39.299236,-76.609383,54.0,https://curiositas.ulusofona.pt/wp-content/plugins/curiositas-timeline/images/baltimore/BA1.png
https://curiositas.ulusofona.pt/timeline/,1835,1835,1835,,,Nicolino Calyo,Havana,nophoto,,23.113592,-82.366592,55.0,
https://curiositas.ulusofona.pt/timeline/,1835,1835,1835,,,Nicolino Calyo,Filadélfia,nophoto,,39.95233,-75.16379,79.0,
https://curiositas.ulusofona.pt/timeline/,1835,1835,1835,Cosmorama,"Calle Preciados, n19, piso baixo",,Madrid,M13,"Diario de Avisos de Madrid, 14 June 1835",40.41905579398935,-3.705524569470768,,https://curiositas.ulusofona.pt/wp-content/plugins/curiositas-timeline/images/madrid/M13.png
https://curiositas.ulusofona.pt/timeline/,1835,1835,1835,Cosmorama,Rambla(perto do Teatro),,Barcelona,B29,"Diário de Barcelona, 22 March 1835",41.378685373493006,2.1753940889767,,https://curiositas.ulusofona.pt/wp-content/plugins/curiositas-timeline/images/barcelona/B29.png
https://curiositas.ulusofona.pt/timeline/,1835,1836,1835,Cosmorama,Rambla(ao lado do Governo Civil),,Barcelona,B30,"Diário de Barcelona, 5 April 1835",41.38617779803544,2.169389850779518,,https://curiositas.ulusofona.pt/wp-content/plugins/curiositas-timeline/images/barcelona/B30.png
https://curiositas.ulusofona.pt/timeline/,1835,1835,1835,Cosmorama,"Rambla, n12",,Barcelona,B28,"Diário de Barcelona, 25 January 1835",41.37774770100015,2.176478952756452,,https://curiositas.ulusofona.pt/wp-content/plugins/curiositas-timeline/images/barcelona/B28.png
https://curiositas.ulusofona.pt/timeline/,1835,1835,1835,Cosmorama,Calle del Caballero de Gracia (Fonda de la Unión),,Madrid,M5,"Diario de Madrid, 23 January 1835",40.41932906004806,-3.699737358517557,,https://curiositas.ulusofona.pt/wp-content/plugins/curiositas-timeline/images/madrid/M5.png
https://curiositas.ulusofona.pt/timeline/,1835,1835,1835,Cosmorama,"Calle de S. Pablo, n33",,Barcelona,B20,"Diario de Barcelona, 8 March, 1835",41.37908682399815,2.1721842827101825,,https://curiositas.ulusofona.pt/wp-content/plugins/curiositas-timeline/images/barcelona/B20.png
https://curiositas.ulusofona.pt/timeline/,1835,1856,1835,Diorama y Cosmorama,Paseo de Recoletos (Galería Topográfica),,Madrid,M6,"Diario de Madrid, 3 April 1836",40.42248801919563,-3.692198060469076,,https://curiositas.ulusofona.pt/wp-content/plugins/curiositas-timeline/images/madrid/M6.png
https://curiositas.ulusofona.pt/timeline/,1835,1836,1835,Neorama / Viage de Ilusion,Calle Fernando VII,,Barcelona,B8,"Diario de Barcelona, 13 March 1836",41.38149509910588,2.175569645797149,,https://curiositas.ulusofona.pt/wp-content/plugins/curiositas-timeline/images/barcelona/B8.png
https://curiositas.ulusofona.pt/timeline/,1835,1835,1835,Cosmorama Italiano / Cosmorama,"Calle D'Es Set Cantons, Manzana 116, n31(frente al peso real de la plateria )",,Palma de Mallorca,PM2,"Diário Balear, 3 September, 1835",39.570289930962026,2.651179589223711,,https://curiositas.ulusofona.pt/wp-content/plugins/curiositas-timeline/images/palma-de-mallorca/PM2.png
https://curiositas.ulusofona.pt/timeline/,1835,1835,1835,Cosmorama Político,"Rua do Ouro, n102",,Lisboa,L11,"O Nacional, 17 March 1835",38.71012107623905,-9.138347195649123,,https://curiositas.ulusofona.pt/wp-content/plugins/curiositas-timeline/images/lisboa/L11.png
https://curiositas.ulusofona.pt/timeline/,1835,1835,1835,Cosmorama,Centro Histórico do Porto,,Porto,P9,"Folha de Anuncios, 4 May 1835",41.14194956913981,-8.616667,,https://curiositas.ulusofona.pt/wp-content/plugins/curiositas-timeline/images/porto/P9.png
https://curiositas.ulusofona.pt/timeline/,1835,1836,1835,Cosmorama,"Rua de Santo António, n18",,Porto,P8,"Folha de Anúncios, 20 April 1835",41.1460587357701,-8.610247117982926,,https://curiositas.ulusofona.pt/wp-content/plugins/curiositas-timeline/images/porto/P8.png
https://curiositas.ulusofona.pt/timeline/,1836,1836,1836,jerez,"Calle de la Estrella, n2",Luis Muriel,Madrid,M7,"Diario de Madrid, 5 May 1836",40.42201715223582,-3.705884118141197,,https://curiositas.ulusofona.pt/wp-content/plugins/curiositas-timeline/images/madrid/M7.png
https://curiositas.ulusofona.pt/timeline/,1836,1836,1836,Cosmorama - Templo da Illusão,"Rua de Santo António, n81, piso 1",Menatory,Porto,P4,"O Artilheiro, 13 February 1836",41.14628565442836,-8.609044535754995,70.0,https://curiositas.ulusofona.pt/wp-content/plugins/curiositas-timeline/images/porto/P4.png
https://curiositas.ulusofona.pt/timeline/,1836,1837,1836,Cosmorama/ Grand Cosmorama,"Saloon, Royal Arcade",Menatory,Dublin,D5,"Saunders's News-Letter, 22 November 1836",53.34422324705472,-6.260083693630278,78.0,https://curiositas.ulusofona.pt/wp-content/plugins/curiositas-timeline/images/dublin/D5.png
https://curiositas.ulusofona.pt/timeline/,1836,1836,1836,Galeria Optica,,Thomas Karl Andorfer,Nápoles,NAP1,"Il Telescópio, n12, 30 August 1836",40.8401,14.2516,80.0,https://curiositas.ulusofona.pt/wp-content/plugins/curiositas-timeline/images/napoles/NAP1.png
https://curiositas.ulusofona.pt/timeline/,1836,1836,1836,Cosmorama,"Rua de Santo António, n21",,Porto,P10,"A Vedeta da Liberdade, 22 February 1836",41.14624433465951,-8.61004111798293,,https://curiositas.ulusofona.pt/wp-content/plugins/curiositas-timeline/images/porto/P10.png
https://curiositas.ulusofona.pt/timeline/,1836,1836,1836,Cosmorama,Centro Histórico do Porto,,Porto,P11,"A Vedeta da Liberdade, 26 August 1836",41.14194956913981,-8.616667,,https://curiositas.ulusofona.pt/wp-content/plugins/curiositas-timeline/images/porto/P11.png
https://curiositas.ulusofona.pt/timeline/,1836,1836,1836,Cosmorama,"Rua da Porta de Carros, n61 (Antiga Estalagem Real)",,Porto,P2,"A Vedeta da Liberdade, 1 November 1836",41.14562726003052,-8.610725460442701,75.0,https://curiositas.ulusofona.pt/wp-content/plugins/curiositas-timeline/images/porto/P2.png
https://curiositas.ulusofona.pt/timeline/,1836,1836,1836,Cosmorama,"Rua de Santo António, n42 e n43",,Porto,P7,"O Artilheiro, 30 November 1836",41.1461617549949,-8.61049728927878,74.0,https://curiositas.ulusofona.pt/wp-content/plugins/curiositas-timeline/images/porto/P7.png
https://curiositas.ulusofona.pt/timeline/,1836,1836,1836,Cosmoramic Views,Adelaide Street (Adelaide Gallery),,London,Lon7,"Morning Advertiser, 17 June 1836",51.50903554714765,-0.1258694713294136,,https://curiositas.ulusofona.pt/wp-content/plugins/curiositas-timeline/images/london/Lon7.png
https://curiositas.ulusofona.pt/timeline/,1836,1836,1836,Cosmoramic Views,"Royal Colosseum, Regent’s Park",,London,Lon9,"True Sun, 23 May 1836",51.52807537498161,-0.1455492899008594,,https://curiositas.ulusofona.pt/wp-content/plugins/curiositas-timeline/images/london/Lon9.png
https://curiositas.ulusofona.pt/timeline/,1837,1837,1837,Promenade Nocturne/Grand Cosmorama/Temple D'Illusion,Postoffice Place (Exhibition Rooms),Menatory,Liverpool,Liv10,"Liverpool Standard and General Commercial Advertiser, 03 February 1837",53.40337912047482,-2.97868057398242,29.0,https://curiositas.ulusofona.pt/wp-content/plugins/curiositas-timeline/images/liverpool/Liv10.png
https://curiositas.ulusofona.pt/timeline/,1837,1837,1837,,,Nicolino Calyo,Nova Orleães,nophoto,,30.0675,-89.9272,85.0,
https://curiositas.ulusofona.pt/timeline/,1837,1837,1837,Galeria Optica,,Thomas Karl Andorfer,Veneza,VEN1,"Gazetta di Venezia, vol. 4, 1837",45.4343,12.3388,86.0,https://curiositas.ulusofona.pt/wp-content/plugins/curiositas-timeline/images/veneza/VEN1.png
https://curiositas.ulusofona.pt/timeline/,1838,1843,1838,Neorama o Viage de Ilusión,"Calle de San Pablo, n3",Felipe Maglia,Barcelona,B31,"Diário de Barcelona, 27 November 1838",41.51285491419692,2.1921050830919007,33.0,https://curiositas.ulusofona.pt/wp-content/plugins/curiositas-timeline/images/barcelona/B31.png
https://curiositas.ulusofona.pt/timeline/,1838,1841,1838,Cosmorama / The Lounge,"Lounge, Boar-Lane, n17",,Leeds,Lee5,"Leeds Intellingencer, 12 January 1839",53.79596097790888,-1.5443669027960198,,https://curiositas.ulusofona.pt/wp-content/plugins/curiositas-timeline/images/leeds/Lee5.png
https://curiositas.ulusofona.pt/timeline/,1839,1840,1839,Gran Cosmorama,"Calle del Lobo, n9",Echegaray,Madrid,M11,"Diario de Madrid, 12 April 1840",40.41586306235875,-3.6995161641976217,,https://curiositas.ulusofona.pt/wp-content/plugins/curiositas-timeline/images/madrid/M11.png
https://curiositas.ulusofona.pt/timeline/,1839,1840,1839,Galería Pintoresca o Cosmorama,Calle de la Gorguera n15,Núñez de Arce,Madrid,M10,"Diario de Madrid, 23 September 1840",40.4153972740844,-3.7012053592857135,,https://curiositas.ulusofona.pt/wp-content/plugins/curiositas-timeline/images/madrid/M10.png
https://curiositas.ulusofona.pt/timeline/,1839,1839,1839,Gran Viage Pintoresco,Centro Histórico da Cidade do México,Nicolino Calyo,México,ME1,"Diario del Gobierno de la República Mexicana, 30 April 1840",19.432608,-99.133209,117.0,https://curiositas.ulusofona.pt/wp-content/plugins/curiositas-timeline/images/mexico/ME1.png
https://curiositas.ulusofona.pt/timeline/,1839,1839,1839,Neorama,Centro Histórico de Cádiz,Thomas Karl Andorfer,Cádiz,C5,"Diário de Barcelona, 28 December 1839",36.52985365178631,-6.295283710125762,87.0,https://curiositas.ulusofona.pt/wp-content/plugins/curiositas-timeline/images/cadiz/C5.png
https://curiositas.ulusofona.pt/timeline/,1839,1839,1839,Galeria Optica,,Thomas Karl Andorfer,Cádiz,C5,"Revista Gaditana, n4, 24 November 1839",36.52985365178631,-6.295283710125762,90.0,https://curiositas.ulusofona.pt/wp-content/plugins/curiositas-timeline/images/cadiz/C5.png
https://curiositas.ulusofona.pt/timeline/,1839,1841,1839,Neorama con Figuras de Movimiento,Calle de San Pablo,,Barcelona,B32,"Diário de Barcelona, 27 December 1839",41.51351121264922,2.1911641695980206,,https://curiositas.ulusofona.pt/wp-content/plugins/curiositas-timeline/images/barcelona/B32.png
https://curiositas.ulusofona.pt/timeline/,1839,1839,1839,Neorama,Calle de Afligidos,,Barcelona,B13,"Diario de Barcelona, 5 July 1839",41.38192855725192,2.1773407346704987,,https://curiositas.ulusofona.pt/wp-content/plugins/curiositas-timeline/images/barcelona/B13.png
https://curiositas.ulusofona.pt/timeline/,1840,1840,1840,Grande Galeria Óptica,"Rua das Taipas, n71, piso 1",Thomas Karl Andorfer,Porto,P6,"Annuncios, 7 September 1840",41.14381598687008,-8.61768876397004,91.0,https://curiositas.ulusofona.pt/wp-content/plugins/curiositas-timeline/images/porto/P6.png
https://curiositas.ulusofona.pt/timeline/,1840,1840,1840,Grande Galeria Óptica,"Largo de S. Paulo, Casa de Pombal, n11, piso 1",Thomas Karl Andorfer,Lisboa,L3,"Diário do Governo, 2 January 1840",38.707662141000576,-9.145029879048554,94.0,https://curiositas.ulusofona.pt/wp-content/plugins/curiositas-timeline/images/lisboa/L3.png
https://curiositas.ulusofona.pt/timeline/,1840,1840,1840,Galería Topográfica Diorama y Cosmorama,Centro Histórico de Valencia,,Valencia,V1,"La Tribuna, 31 March 1840",39.47341178802595,-0.3765008385541465,,https://curiositas.ulusofona.pt/wp-content/plugins/curiositas-timeline/images/valencia/V1.png
https://curiositas.ulusofona.pt/timeline/,1841,1841,1841,Cosmorama / Springthorpe's Grand Exhibition,"Commercial Buildings, Leeds",Springthorpe,Leeds,Lee1,"Leeds Intellingencer, 17 June 1841",53.8026365821606,-1.5528713666881044,103.0,https://curiositas.ulusofona.pt/wp-content/plugins/curiositas-timeline/images/leeds/Lee1.png
https://curiositas.ulusofona.pt/timeline/,1841,1841,1841,Galeria Optica,,Thomas Karl Andorfer,Santander,S2,"La Montaña: Revista Semanal de la Colonia Montañesa, ano 16, n14, 15 August 1841",43.46133395911769,-3.807678155356374,96.0,https://curiositas.ulusofona.pt/wp-content/plugins/curiositas-timeline/images/santander/S2.png
https://curiositas.ulusofona.pt/timeline/,1841,1841,1841,Cosmorama,Rambla,,Barcelona,B21,"Diario de Barcelona, 8 December, 1841",41.38576161353297,2.169838054250877,,https://curiositas.ulusofona.pt/wp-content/plugins/curiositas-timeline/images/barcelona/B21.png
https://curiositas.ulusofona.pt/timeline/,1842,1842,1842,Grande Espectáculo Óptico,"Largo do Pelourinho, n24, piso 1",Thomas Karl Andorfer,Lisboa,L4,"O Correio Português, 18 January 1842",38.7083075233399,-9.139611176649082,106.0,https://curiositas.ulusofona.pt/wp-content/plugins/curiositas-timeline/images/lisboa/L4.png
https://curiositas.ulusofona.pt/timeline/,1842,1842,1842,Neorama,"Calle Nueva de San Francisco, n3",,Barcelona,B14,"Diario de Barcelona, 15 May 1842",41.379662976113465,2.1767246119213253,,https://curiositas.ulusofona.pt/wp-content/plugins/curiositas-timeline/images/barcelona/B14.png
https://curiositas.ulusofona.pt/timeline/,1842,1842,1842,Cosmorama con Luz Natural,Frente la puerta de Santa Madrona,,Barcelona,B15,Diario de Barcelona 6 July 1842,41.37491354160972,2.175048360651486,,https://curiositas.ulusofona.pt/wp-content/plugins/curiositas-timeline/images/barcelona/B15.png
https://curiositas.ulusofona.pt/timeline/,1842,1842,1842,Cosmoramic Views,Dun-Edin Hall,,Edinburgh,E8,"Witness Edinburgh, 01 January 1842",55.9533933818366,-3.1883980560841114,,https://curiositas.ulusofona.pt/wp-content/plugins/curiositas-timeline/images/edinburgh/E8.png
https://curiositas.ulusofona.pt/timeline/,1842,1842,1842,Diorama and Cosmorama,Lothian Road,,Edinburgh,E5,"The Scotsman, 3 August 1842",55.94765952558048,-3.206129660345165,,https://curiositas.ulusofona.pt/wp-content/plugins/curiositas-timeline/images/edinburgh/E5.png
https://curiositas.ulusofona.pt/timeline/,1843,1843,1843,Cosmorama Histórico,"Calle de la Ciudad, n8",Francisco Dalmau,Barcelona,B10,"Diario de Barcelona, 1843",41.40330807739788,2.1599457965809123,121.0,https://curiositas.ulusofona.pt/wp-content/plugins/curiositas-timeline/images/barcelona/B10.png
https://curiositas.ulusofona.pt/timeline/,1843,1843,1843,Major's Collection/ Grand Cosmoramic Views,Williamson Square (York Hotel),Major,Liverpool,Liv8,"Liverpool Mercury, 21 April 1843",53.40671121082423,-2.982736408978928,,https://curiositas.ulusofona.pt/wp-content/plugins/curiositas-timeline/images/liverpool/Liv8.png
https://curiositas.ulusofona.pt/timeline/,1843,1843,1843,Cosmorama,"Music Hall, Lower Abbey Street",Springthorpe,Dublin,D8,"Warder and Dublin Weekly Mail, 9 September 1843",53.34417975020891,-6.264284689327162,104.0,https://curiositas.ulusofona.pt/wp-content/plugins/curiositas-timeline/images/dublin/D8.png
https://curiositas.ulusofona.pt/timeline/,1843,1843,1843,Liver Theatre,Church-Street,Springthorpe,Liverpool,Liv11,"Liverpool Standard and General Commercial Advertiser, 25 April 1843",53.40528109259953,-2.9835818316530505,105.0,https://curiositas.ulusofona.pt/wp-content/plugins/curiositas-timeline/images/liverpool/Liv11.png
https://curiositas.ulusofona.pt/timeline/,1843,1843,1843,Grand Cosmoramic Views,"Donnybrook Fair, Royal Pavillon",Springthorpe,Dublin,D3,"Freeman's Journal, 18 August 1843",53.34920182224528,-6.253617832799885,123.0,https://curiositas.ulusofona.pt/wp-content/plugins/curiositas-timeline/images/dublin/D3.png
https://curiositas.ulusofona.pt/timeline/,1843,1843,1843,Galeria Optica,,Thomas Karl Andorfer,Rio de Janeiro,RJ1,"Diário do Rio de Janeiro, 21 October 1843",-22.908333,-43.196388,108.0,https://curiositas.ulusofona.pt/wp-content/plugins/curiositas-timeline/images/rio-de-janeiro/RJ1.png
https://curiositas.ulusofona.pt/timeline/,1843,1843,1843,Banks’s Cosmoramic View of London,Albion Office,,Liverpool,Liv4,"Liverpool Albion, 18 September 1843",53.405924221399374,-2.9812450193171625,,https://curiositas.ulusofona.pt/wp-content/plugins/curiositas-timeline/images/liverpool/Liv4.png
https://curiositas.ulusofona.pt/timeline/,1844,1844,1844,Galeria Optica,,Thomas Karl Andorfer,Recife,R1,"Diário de Pernambuco, n162, 24 July 1848",-8.05428,-34.8813,109.0,https://curiositas.ulusofona.pt/wp-content/plugins/curiositas-timeline/images/recife/R1.png
https://curiositas.ulusofona.pt/timeline/,1844,1844,1844,Galeria Optica,,Thomas Karl Andorfer,S. Luís do Maranhão,SLM1,"Publicador Maranhense, 3 November1844",-2.53073,-44.3068,110.0,https://curiositas.ulusofona.pt/wp-content/plugins/curiositas-timeline/images/s.-luis-do-maranhao/SLM1.png
https://curiositas.ulusofona.pt/timeline/,1845,1845,1845,Galeria Optica,,Thomas Karl Andorfer,Belém do Pará,BP1,"Treze de May, n510, 28 May 1845",-1.45502,-48.5024,111.0,https://curiositas.ulusofona.pt/wp-content/plugins/curiositas-timeline/images/belem-do-para/BP1.png
https://curiositas.ulusofona.pt/timeline/,1845,1845,1845,Galeria Optica,,Thomas Karl Andorfer,Broadway,EUA1,The New York Herald 22 December 1845,40.790886,-73.974709,114.0,https://curiositas.ulusofona.pt/wp-content/plugins/curiositas-timeline/images/broadway/EUA1.png
https://curiositas.ulusofona.pt/timeline/,1845,1845,1845,Cosmoramic Views,"Wilks's Emporium of Ireland, and Civet Cat, n16, Dame-Street",,Dublin,D2,"Dublin Weekly Nation, 29 March 1845",53.344157850258256,-6.265161902821058,,https://curiositas.ulusofona.pt/wp-content/plugins/curiositas-timeline/images/dublin/D2.png
https://curiositas.ulusofona.pt/timeline/,1845,1845,1845,Cosmorama,"Regent-street, n209",,London,Lon19,"Morning Herald, 2 September 1845",51.5134099791234,-0.1411541029209156,,https://curiositas.ulusofona.pt/wp-content/plugins/curiositas-timeline/images/london/Lon19.png
https://curiositas.ulusofona.pt/timeline/,1846,1846,1846,Galeria Optica,,Thomas Karl Andorfer,Hamburgo,H1,"Der Freischütz, 29 August 1846",53.551086,9.993682,115.0,https://curiositas.ulusofona.pt/wp-content/plugins/curiositas-timeline/images/hamburgo/H1.png
https://curiositas.ulusofona.pt/timeline/,1846,1846,1846,Galeria Optica,,Thomas Karl Andorfer,Havana,HAV1,"Diario de la Marina, 5 April 1846",23.113592,-82.366592,131.0,https://curiositas.ulusofona.pt/wp-content/plugins/curiositas-timeline/images/havana/HAV1.png
https://curiositas.ulusofona.pt/timeline/,1847,1847,1847,Groves’ Exhibition,"Church Street, n50",Groves,Liverpool,Liv6,"Liverpool Mail, 6 November 1847",53.40505178934794,-2.982070345146969,,https://curiositas.ulusofona.pt/wp-content/plugins/curiositas-timeline/images/liverpool/Liv6.png
https://curiositas.ulusofona.pt/timeline/,1847,1847,1847,Vannucchi's Great and Extensive Cosmorama,,Nicolino Calyo,Nova Iorque,NY1,"New York Herald, 15 June 1847",40.73061,-73.935242,122.0,https://curiositas.ulusofona.pt/wp-content/plugins/curiositas-timeline/images/nova-iorque/NY1.png
https://curiositas.ulusofona.pt/timeline/,1847,1847,1847,Cosmorama,Cremorne Gardens,,London,Lon12,"Daily News, 1 April 1847",51.47980067705974,-0.1784653711937716,,https://curiositas.ulusofona.pt/wp-content/plugins/curiositas-timeline/images/london/Lon12.png
https://curiositas.ulusofona.pt/timeline/,1848,1848,1848,Cosmorama,"Lower Sackville-Street, n52",C. Pollard,Dublin,D9,"Weekly Freeman's Journal, 3 June 1848",53.35113613037921,-6.261203045149959,,https://curiositas.ulusofona.pt/wp-content/plugins/curiositas-timeline/images/dublin/D9.png
https://curiositas.ulusofona.pt/timeline/,1849,1849,1849,Neorama,"Calle de Cirés, n6 (cruza com a Calle del Conde de Asalto)",,Barcelona,B22,"Diario de Barcelona, 7 April 1849",41.37795292568318,2.1713048819640077,,https://curiositas.ulusofona.pt/wp-content/plugins/curiositas-timeline/images/barcelona/B22.png
https://curiositas.ulusofona.pt/timeline/,1850,1850,1850,Neorama,Calle Fernando VII,Dalmau,Barcelona,B26,"Diario de Barcelona, 17 September 1850",41.38163127336057,2.1755699965799424,101.0,https://curiositas.ulusofona.pt/wp-content/plugins/curiositas-timeline/images/barcelona/B26.png
https://curiositas.ulusofona.pt/timeline/,1850,1850,1850,,,Nicolino Calyo,Boston,nophoto,,42.361145,-71.057083,125.0,
https://curiositas.ulusofona.pt/timeline/,1850,1850,1850,Cosmoramic Views,"Church Street (Exhibition Rooms, Old Postoffice Place )",Springthorpe,Liverpool,Liv9,"Liverpool Mercury, 5 July 1850",53.40528109259953,-2.9835818316530505,93.0,https://curiositas.ulusofona.pt/wp-content/plugins/curiositas-timeline/images/liverpool/Liv9.png
https://curiositas.ulusofona.pt/timeline/,1851,1851,1851,Cosmorama,"Regent Street, n209 (Prince of Wales's Bazaar)",,London,Lon8,"Morning Advertiser, 11 July 1851",51.5134099791234,-0.1411541029209156,,https://curiositas.ulusofona.pt/wp-content/plugins/curiositas-timeline/images/london/Lon8.png
https://curiositas.ulusofona.pt/timeline/,1852,1852,1852,Cosmorama,"Calle de San Jose, n67",Nicolino Calyo,Cádiz,C1,"El Comercio, 16 August 1852",36.53180174877299,-6.3012611882824485,126.0,https://curiositas.ulusofona.pt/wp-content/plugins/curiositas-timeline/images/cadiz/C1.png
https://curiositas.ulusofona.pt/timeline/,1852,1852,1852,Cosmorama,"Calle Larga, n50",Nicolino Calyo,Jerez de la Frontera,J1,"El Guadalete, 2 October 1852",36.685569053195664,-6.136326965308351,134.0,https://curiositas.ulusofona.pt/wp-content/plugins/curiositas-timeline/images/jerez-de-la-frontera/J1.png
https://curiositas.ulusofona.pt/timeline/,1852,1852,1852,Cosmorama/ Grand Cosmorama,"Anglesea Building, n88, Lower Abbey-Street",Secourable,Dublin,D4,"Freeman's Journal, 29 December 1852",53.34417975020891,-6.264284689327162,130.0,https://curiositas.ulusofona.pt/wp-content/plugins/curiositas-timeline/images/dublin/D4.png
https://curiositas.ulusofona.pt/timeline/,1852,1852,1852,Cosmorama,"Entre el Mercado y el Borne, n14, Piso Principal",,Palma de Mallorca,PM3,"Diário de Palma, 6 July 1852",39.5689297827185,2.6472922997502426,,https://curiositas.ulusofona.pt/wp-content/plugins/curiositas-timeline/images/palma-de-mallorca/PM3.png
https://curiositas.ulusofona.pt/timeline/,1852,1852,1852,Cosmoramic Views,Calton Hill (Nelson’s Monument),,Edinburgh,E6,"The Scotsman, 19 May 1852",55.95452476331478,-3.1826937761178016,,https://curiositas.ulusofona.pt/wp-content/plugins/curiositas-timeline/images/edinburgh/E6.png
https://curiositas.ulusofona.pt/timeline/,1853,1853,1853,Grand Cosmorama/ Cosmorama,"Dame-Street, n24",Secourable,Dublin,D6,"Saunders's News-Letter, 23 March 1853",53.34421170468988,-6.264231059674351,127.0,https://curiositas.ulusofona.pt/wp-content/plugins/curiositas-timeline/images/dublin/D6.png
https://curiositas.ulusofona.pt/timeline/,1853,1853,1853,Kunstcabinet,,Thomas Karl Andorfer,Liubliana,LIU1,"Laibacher Zeitung, 16 August 1853",46.056946,14.505751,132.0,https://curiositas.ulusofona.pt/wp-content/plugins/curiositas-timeline/images/liubliana/LIU1.png
https://curiositas.ulusofona.pt/timeline/,1853,1853,1853,Cosmorama,,Thomas Karl Andorfer,Trieste,TRI1,"La Fama del 1853. Rassegna di Scienze, Lettere, Arti, Industria e Teatri, 25 April 1853",45.633331,13.8,14.0,https://curiositas.ulusofona.pt/wp-content/plugins/curiositas-timeline/images/trieste/TRI1.png
https://curiositas.ulusofona.pt/timeline/,1853,1853,1853,Cosmorama Universal,"Calle Ancha, n62",,Cádiz,C2,"La Palma, 3 de November 1853",36.53311040459643,-6.297026403623852,,https://curiositas.ulusofona.pt/wp-content/plugins/curiositas-timeline/images/cadiz/C2.png
https://curiositas.ulusofona.pt/timeline/,1854,1854,1854,,,Nicolino Calyo,Madrid,M23,"La Época, 1 May 1854",40.416775,-3.70379,27.0,https://curiositas.ulusofona.pt/wp-content/plugins/curiositas-timeline/images/madrid/M23.png
https://curiositas.ulusofona.pt/timeline/,1854,1854,1854,Cosmorama,"Upper Sackville-Street, n23",,Dublin,D7,"Saunders's News-Letter, 1 May 1854",53.35176854123548,-6.260295002820647,,https://curiositas.ulusofona.pt/wp-content/plugins/curiositas-timeline/images/dublin/D7.png
https://curiositas.ulusofona.pt/timeline/,1855,1856,1855,Cosmoramic Views,Lime Street (Teutonic Hall),William Allsop,Liverpool,Liv12,"Northern Daily Times, 12 December 1855",53.40734259926333,-2.979737002817591,146.0,https://curiositas.ulusofona.pt/wp-content/plugins/curiositas-timeline/images/liverpool/Liv12.png
https://curiositas.ulusofona.pt/timeline/,1855,1855,1855,Gran Cosmorama y La Caja Misteriosa,Paseo de Borne,,Palma de Mallorca,PM1,"El Balear, 24 March 1855",39.57102918911314,2.6470542541287925,,https://curiositas.ulusofona.pt/wp-content/plugins/curiositas-timeline/images/palma-de-mallorca/PM1.png
https://curiositas.ulusofona.pt/timeline/,1855,1856,1855,Grande Cosmorama,"Rua Direita do Loreto, n92, piso 1",,Lisboa,L5,"Noticiador do Progresso, 12 March 1856",38.71084677762112,-9.145081674699892,,https://curiositas.ulusofona.pt/wp-content/plugins/curiositas-timeline/images/lisboa/L5.png
https://curiositas.ulusofona.pt/timeline/,1856,1856,1856,Neorama,"Calle S. Fernando, n75",Carlos Anchineli,Córdoba,CO2,"Diario de Córdoba de Comercio, Industria, Administracion, Noticias y Avisos, 3 January 1856",37.88102709856203,-4.7757719747342335,190.0,https://curiositas.ulusofona.pt/wp-content/plugins/curiositas-timeline/images/cordoba/CO2.png
https://curiositas.ulusofona.pt/timeline/,1856,1856,1856,Cosmorama,Teatro,,Teruel,T1,"El Turia, 31 August, 1856",40.34104582659906,-1.1065327188072815,,https://curiositas.ulusofona.pt/wp-content/plugins/curiositas-timeline/images/teruel/T1.png
https://curiositas.ulusofona.pt/timeline/,1856,1857,1856,Stereoscopic cosmoramas,"Church-Street, n34",,Liverpool,Liv7,"Liverpool Mail, 03 January 1857",53.40502120913576,-2.982067216311572,,https://curiositas.ulusofona.pt/wp-content/plugins/curiositas-timeline/images/liverpool/Liv7.png
https://curiositas.ulusofona.pt/timeline/,1856,1856,1856,Grande Panorama,Rua Nova da Misericórdia nº18,,Leiria,Lei1,"O Leiriense, 4 June 1856",39.74538995965602,-8.808021560493309,,https://curiositas.ulusofona.pt/wp-content/plugins/curiositas-timeline/images/leiria/Lei1.png
https://curiositas.ulusofona.pt/timeline/,1857,1857,1857,Cosmorama,The Royal Polytechnic,James Stevens,London,Lon13,"Patriot, 17July 1857",51.518234362304455,-0.1410597162151806,,https://curiositas.ulusofona.pt/wp-content/plugins/curiositas-timeline/images/london/Lon13.png
https://curiositas.ulusofona.pt/timeline/,1857,1858,1857,Cosmorama,"Rua da Calçada, n71",Pedro Gills,Coimbra,Coi1,"O Conimbricense, 29 December 1857",40.29204420117258,-8.446445806565276,91.0,https://curiositas.ulusofona.pt/wp-content/plugins/curiositas-timeline/images/coimbra/Coi1.png
https://curiositas.ulusofona.pt/timeline/,1858,1858,1858,Cosmoramic Stereoscopes,Hanover Gallery,Branch,Liverpool,Liv5,"Liverpool Albion, 30 August 1858",53.40352101645934,-2.98337483388266,,https://curiositas.ulusofona.pt/wp-content/plugins/curiositas-timeline/images/liverpool/Liv5.png
https://curiositas.ulusofona.pt/timeline/,1858,1859,1858,Cosmoramic and Stereoscopic Views,Lime-street (Teutonic- hall),William Allsop,Liverpool,Liv16,"Northern Daily Times, 23 December 1858",53.40734259926333,-2.979737002817591,136.0,https://curiositas.ulusofona.pt/wp-content/plugins/curiositas-timeline/images/liverpool/Liv16.png
https://curiositas.ulusofona.pt/timeline/,1858,1858,1858,Cosmorama,"Morpeth-street, Bethnal-green, n6",,London,Lon14,"Shoreditch Observer, 4 December 1858",51.52864546850373,-0.0478360892028533,,https://curiositas.ulusofona.pt/wp-content/plugins/curiositas-timeline/images/london/Lon14.png
https://curiositas.ulusofona.pt/timeline/,1858,1858,1858,Stereoscopic and cosmoramic views,Nicolson Street (The Circus Royal),,Edinburgh,E7,"The Scotsman, 19 May 1858",55.94568923962972,-3.184583387333056,,https://curiositas.ulusofona.pt/wp-content/plugins/curiositas-timeline/images/edinburgh/E7.png
https://curiositas.ulusofona.pt/timeline/,1858,1858,1858,Cosmorama,"Carrera de Genil, n17",,Granada,Gra1,"La Alhambra, 2 July 1858",37.16429482003408,-3.5596021901047985,,https://curiositas.ulusofona.pt/wp-content/plugins/curiositas-timeline/images/granada/Gra1.png
https://curiositas.ulusofona.pt/timeline/,1858,1858,1858,Cosmorama,Liceo de Artesanos,,La Coruña,Cor1,"El Fomento de Galicia, 9 April 1858",43.36798358025754,-8.402702000612807,,https://curiositas.ulusofona.pt/wp-content/plugins/curiositas-timeline/images/la-coruna/Cor1.png
https://curiositas.ulusofona.pt/timeline/,1858,1858,1858,Cosmorama,Centro Histórico de Pontevedra,,Pontevedra,Pon1,"El País, 27 July 1858",42.4327584589451,-8.646555147188398,,https://curiositas.ulusofona.pt/wp-content/plugins/curiositas-timeline/images/pontevedra/Pon1.png
https://curiositas.ulusofona.pt/timeline/,1859,1859,1859,Cosmorama,Opposite the Railway Station,A. Reynolds,Liverpool,Liv17,"Liverpool Daily Post, 22 December 1859",53.4046801636134,-2.97999868147083,,https://curiositas.ulusofona.pt/wp-content/plugins/curiositas-timeline/images/liverpool/Liv17.png
https://curiositas.ulusofona.pt/timeline/,1859,1859,1859,Cosmorama,Plaza de las Nieves,,Córdoba,CO3,"Diario de Córdoba de Comercio, Industria, Administracion, Noticias y Avisos, 19 May 1859",37.8793865436785,-4.779737561240425,,https://curiositas.ulusofona.pt/wp-content/plugins/curiositas-timeline/images/cordoba/CO3.png
https://curiositas.ulusofona.pt/timeline/,1859,1859,1859,Cosmorama,Centro Histórico de Jerez de la Frontera,,Jerez de la Frontera,J2,"El Guadalete, 27 December 1859",36.68335052223858,-6.119516370728872,,https://curiositas.ulusofona.pt/wp-content/plugins/curiositas-timeline/images/jerez-de-la-frontera/J2.png
https://curiositas.ulusofona.pt/timeline/,1860,1860,1860,Cosmorama o Tutilimundi,"Calle del Fomento, n31",,Madrid,M14,"La Correspondencia de España, 17 April 1860",40.42216842033025,-3.711226893031028,,https://curiositas.ulusofona.pt/wp-content/plugins/curiositas-timeline/images/madrid/M14.png
https://curiositas.ulusofona.pt/timeline/,1860,1860,1860,Cosmorama,Centro Histórico de León,,León,Leo1,"El Elsa, 5 April 1860",42.59732166970351,-5.566030083023218,,https://curiositas.ulusofona.pt/wp-content/plugins/curiositas-timeline/images/leon/Leo1.png
https://curiositas.ulusofona.pt/timeline/,1860,1860,1860,Neorama,Villanueva,,Barcelona,B27,"Diario de Barcelona, 8 June 1860",41.38192855725192,2.1773407346704987,,https://curiositas.ulusofona.pt/wp-content/plugins/curiositas-timeline/images/barcelona/B27.png
https://curiositas.ulusofona.pt/timeline/,1860,1860,1860,Panorama Universal,"Rua da Feira,12",,Elvas,ELV1,"O Transtagano, 28 June 1860",38.879641483609575,-7.164458093501776,,https://curiositas.ulusofona.pt/wp-content/plugins/curiositas-timeline/images/elvas/ELV1.png
https://curiositas.ulusofona.pt/timeline/,1861,1861,1861,LIU1,"Rua do Salitre, n31 e n33",Ricaud,Lisboa,L6,"Diário de Anúncios, 25 May 1861",38.71977217541331,-9.146369903534916,,https://curiositas.ulusofona.pt/wp-content/plugins/curiositas-timeline/images/lisboa/L6.png
https://curiositas.ulusofona.pt/timeline/,1861,1861,1861,Cosmorama,"Calle Mayor, n1",,Tarragona,Tar1,"Diario de Tarragona, 15 March 1861",41.11730842607914,1.2566624254036018,,https://curiositas.ulusofona.pt/wp-content/plugins/curiositas-timeline/images/tarragona/Tar1.png
https://curiositas.ulusofona.pt/timeline/,1861,1861,1861,Cosmorama,Café de San Antonio de los Portugueses,,Madrid,M15,"La Correspondencia de España, 9 September 1861",40.415028385239225,-3.7080774272235377,,https://curiositas.ulusofona.pt/wp-content/plugins/curiositas-timeline/images/madrid/M15.png
https://curiositas.ulusofona.pt/timeline/,1861,1861,1861,Gran Cosmorama,"Calle Larga, n14",,Jerez de la Frontera,J3,"El Guadalete, 5 October 1861",36.68340076058417,-6.136476622979703,,https://curiositas.ulusofona.pt/wp-content/plugins/curiositas-timeline/images/jerez-de-la-frontera/J3.png
https://curiositas.ulusofona.pt/timeline/,1862,1862,1862,Cosmorama,Largo da Feira,João Annaia,Beja,BEJ1,"O Bejense, 9 August 1862",38.015371125438655,-7.864097701553712,,https://curiositas.ulusofona.pt/wp-content/plugins/curiositas-timeline/images/beja/BEJ1.png
https://curiositas.ulusofona.pt/timeline/,1862,1862,1862,Cosmorama,Calle de la Concepcion (Plazuela de Abades),,Córdoba,CO4,"Diario de Córdoba de Comercio, Industria, Administración, Noticias y Avisos, 2 August 1862",37.87977876944301,-4.777684090075781,,https://curiositas.ulusofona.pt/wp-content/plugins/curiositas-timeline/images/cordoba/CO4.png
https://curiositas.ulusofona.pt/timeline/,1862,1862,1862,Cosmorama,Centro Histórico de Córdoba,,Córdoba,CO5,"Diario de Córdoba de Comercio, Industria, Administración, Noticias y Avisos, 14 December 1862",37.8793865436785,-4.779737561240425,,https://curiositas.ulusofona.pt/wp-content/plugins/curiositas-timeline/images/cordoba/CO5.png
https://curiositas.ulusofona.pt/timeline/,1863,1863,1863,Cosmorama,Jardines del Paraíso,,Madrid,M16,"La Correspondencia de España, 3 May 1863",40.43067460541072,-3.621381474626529,,https://curiositas.ulusofona.pt/wp-content/plugins/curiositas-timeline/images/madrid/M16.png
https://curiositas.ulusofona.pt/timeline/,1863,1863,1863,Gran Cosmorama,"Calle de la Cruz, n1",,Madrid,M18,"La Correspondencia de España, 20 August 1865",40.416515934745085,-3.700527893032795,,https://curiositas.ulusofona.pt/wp-content/plugins/curiositas-timeline/images/madrid/M18.png
https://curiositas.ulusofona.pt/timeline/,1864,1864,1864,Gran Panorama Monstruo / Gran Panorama Universal,Paseo de la Feria (Paseo de la Victória),,Córdoba,CO1,"Diario de Córdoba de Comercio, Industria, Administración, Noticias y Avisos, 14 May 1864",37.88407052787056,-4.784889674734094,,https://curiositas.ulusofona.pt/wp-content/plugins/curiositas-timeline/images/cordoba/CO1.png
https://curiositas.ulusofona.pt/timeline/,1864,1864,1864,"Galería óptica, revista universal pintoresca, cosmorama y poliorama","Calle Del Castillo, 10, Piso Principal",,Canarias,CAT1,"Eco del Comercio, 25 June 1864",28.467195644951747,-16.24973107507194,,https://curiositas.ulusofona.pt/wp-content/plugins/curiositas-timeline/images/canarias/CAT1.png
https://curiositas.ulusofona.pt/timeline/,1864,1864,1864,Cosmorama,,,Canarias,CAST1,"El Time, 15 May 1864",28.683492454379447,-17.764647461412146,,https://curiositas.ulusofona.pt/wp-content/plugins/curiositas-timeline/images/canarias/CAST1.png
https://curiositas.ulusofona.pt/timeline/,1865,1865,1865,Cosmorama,Plaza Mayor,,Madrid,M17,"La Correspondencia de España, 25 June 1865",40.4156040169188,-3.707357633234371,,https://curiositas.ulusofona.pt/wp-content/plugins/curiositas-timeline/images/madrid/M17.png
https://curiositas.ulusofona.pt/timeline/,1866,1866,1866,Neorama,Calle del Regomir,Corrons,Barcelona,B23,"Diario de Barcelona, 23 June 1866",41.38137072386098,2.1795220542506644,,https://curiositas.ulusofona.pt/wp-content/plugins/curiositas-timeline/images/barcelona/B23.png
https://curiositas.ulusofona.pt/timeline/,1866,1867,1866,Neorama,Calle del Liceo,,Córdoba,CO9,"Diario de Córdoba, 11 September 1866",37.8793865436785,-4.779737561240425,,https://curiositas.ulusofona.pt/wp-content/plugins/curiositas-timeline/images/cordoba/CO9.png
https://curiositas.ulusofona.pt/timeline/,1866,1866,1866,Gran Cosmorama,"Calle de los Apóstoles, 8",,Murcia,MU1,"La Paz de Murcia, 26 September 1866",37.98381386953158,-1.128414736097061,,https://curiositas.ulusofona.pt/wp-content/plugins/curiositas-timeline/images/murcia/MU1.png
https://curiositas.ulusofona.pt/timeline/,1867,1867,1867,Cosmorama,"Rosherville Gardens, Drawing-room Theatre",J. Seaton,London,Lon16,"South London Press, 13 Abril 1867",51.44426876120212,0.3525440533088844,,https://curiositas.ulusofona.pt/wp-content/plugins/curiositas-timeline/images/london/Lon16.png
https://curiositas.ulusofona.pt/timeline/,1867,1869,1867,Cosmorama,Puerta del Sol (en frente al Ministerio de la Gobernacion),,Madrid,M19,"La Correspondencia de España, 23 October 1867",40.41667327566639,-3.703813839410395,,https://curiositas.ulusofona.pt/wp-content/plugins/curiositas-timeline/images/madrid/M19.png
https://curiositas.ulusofona.pt/timeline/,1867,1867,1867,Cristalofisiorama e Neorama,"Jardín del Café del Recreo - Calle Escudellers, n6",,Mahón,Mah1,"El Menorquín, 26 June 1867",39.89035071811861,4.262843244982005,,https://curiositas.ulusofona.pt/wp-content/plugins/curiositas-timeline/images/mahon/Mah1.png
https://curiositas.ulusofona.pt/timeline/,1867,1867,1867,Cosmorama,Calle de Atazaranas,,Santander,S1,"La Abeja Montañesa: Periodico de los Intereses Locales, 15 October 1867",43.46133395911768,-3.807678155356374,,https://curiositas.ulusofona.pt/wp-content/plugins/curiositas-timeline/images/santander/S1.png
https://curiositas.ulusofona.pt/timeline/,1867,1868,1867,The Palace of The People's Pleasures/ Cosmorama,Crystal Palace,,London,Lon15,"South London Press, 2 Novembro 1867",51.42256462362807,-0.0758005537922816,,https://curiositas.ulusofona.pt/wp-content/plugins/curiositas-timeline/images/london/Lon15.png
https://curiositas.ulusofona.pt/timeline/,1868,1868,1868,Cosmorama,Calle de Alcalá,,Madrid,M20,"La Correspondencia de España,1 May 1868",40.4203921344217,-3.687902161133088,,https://curiositas.ulusofona.pt/wp-content/plugins/curiositas-timeline/images/madrid/M20.png
https://curiositas.ulusofona.pt/timeline/,1868,1868,1868,Cosmorama,Calle de la Frenería,,Murcia,MU3,"La Paz de Murcia, 8 September 1868",37.98400596667266,-1.1308195900714857,,https://curiositas.ulusofona.pt/wp-content/plugins/curiositas-timeline/images/murcia/MU3.png
https://curiositas.ulusofona.pt/timeline/,1868,1868,1868,Cosmorama,Calle de Letrados con Calle Prim,,Córdoba,CO10,"Diário de Córdoba, 4 November 1868",37.8793865436785,-4.779737561240425,,https://curiositas.ulusofona.pt/wp-content/plugins/curiositas-timeline/images/cordoba/CO10.png
https://curiositas.ulusofona.pt/timeline/,1869,1869,1869,Cosmorama,Plaza de Cataluña(encostado a uma das paredes da praça),,Barcelona,B25,"Diário de Barcelona, 13 July 1869",41.387067247205785,2.170040360632894,,https://curiositas.ulusofona.pt/wp-content/plugins/curiositas-timeline/images/barcelona/B25.png
https://curiositas.ulusofona.pt/timeline/,1869,1869,1869,Cosmorama,Rambla,,Tarragona,Tar2,"Diario de Tarragona, 11 June 1869",41.11665073074963,1.2509594965681918,,https://curiositas.ulusofona.pt/wp-content/plugins/curiositas-timeline/images/tarragona/Tar2.png
https://curiositas.ulusofona.pt/timeline/,1869,1870,1869,Dio-Neorama,"Rua Nova da Palma, nº105",,Lisboa,L7,"Secção de Anúncios do Rossio, 1869",38.71723375157633,-9.136034774434542,,https://curiositas.ulusofona.pt/wp-content/plugins/curiositas-timeline/images/lisboa/L7.png
https://curiositas.ulusofona.pt/timeline/,1870,1870,1870,Gran Cosmorama,"Calle del Caballero de Gracia, n48",,Madrid,M21,"La Correspondencia de España, 02 September 1870",40.41910532378268,-3.698512664196576,,https://curiositas.ulusofona.pt/wp-content/plugins/curiositas-timeline/images/madrid/M21.png
https://curiositas.ulusofona.pt/timeline/,1870,1870,1870,Cosmorama,Calle de La Trapería,,Murcia,MU4,"La Paz de Murcia, 2 July 1870",37.98585770155684,-1.1292291938691918,,https://curiositas.ulusofona.pt/wp-content/plugins/curiositas-timeline/images/murcia/MU4.png
https://curiositas.ulusofona.pt/timeline/,1870,1870,1870,Cosmorama e Neorama,Centro Histórico de Barcelona,,Barcelona,B16,"Diário de Barcelona, 24 May, 1870",41.38435408639919,2.1613921173341377,,https://curiositas.ulusofona.pt/wp-content/plugins/curiositas-timeline/images/barcelona/B16.png
https://curiositas.ulusofona.pt/timeline/,1871,1871,1871,Cosmorama de la Guerra Franco-Prusiana,"Calle de Prim, 7",Alfonso & Compañia,Alicante,A1,"Eco de Alicante, 9 May 1871",38.48440337027079,-0.7703999089613411,,https://curiositas.ulusofona.pt/wp-content/plugins/curiositas-timeline/images/alicante/A1.png
https://curiositas.ulusofona.pt/timeline/,1871,1871,1871,Cosmorama,"Calle de Prim, n4",Carlos Anchineli,Córdoba,CO8,"Diario de Córdoba de Comercio, Industria, Administración, Noticias y Avisos, 17 September 1871",38.301463590848456,-5.268932464838699,139.0,https://curiositas.ulusofona.pt/wp-content/plugins/curiositas-timeline/images/cordoba/CO8.png
https://curiositas.ulusofona.pt/timeline/,1871,1871,1871,Gran Cosmorama,Teatro del Conde,,Jerez de la Frontera,J4,"El Progreso, 5 May 1871",36.68143926546662,-6.137538214380416,,https://curiositas.ulusofona.pt/wp-content/plugins/curiositas-timeline/images/jerez-de-la-frontera/J4.png
https://curiositas.ulusofona.pt/timeline/,1871,1871,1871,Neorama,Calle de Escudillers (Esquina à la de Zurbano),,Barcelona,B17,"Diário de Barcelona, 13 August, 1871",41.379312,2.176027,,https://curiositas.ulusofona.pt/wp-content/plugins/curiositas-timeline/images/barcelona/B17.png
https://curiositas.ulusofona.pt/timeline/,1872,1872,1872,"Gran Cosmorama, Poliorama y Neorama","Calle Del Sol, n28",,Canarias,CAT2,"La Federación, 2 March 1872",28.44586527982202,-16.46652104623729,,https://curiositas.ulusofona.pt/wp-content/plugins/curiositas-timeline/images/canarias/CAT2.png
https://curiositas.ulusofona.pt/timeline/,1878,1878,1878,Cosmorama,Alexandra Palace,,London,Lon17,"London Daily Chronicle, 23 April 1878",51.59417717022436,-0.1297282315073447,,https://curiositas.ulusofona.pt/wp-content/plugins/curiositas-timeline/images/london/Lon17.png
https://curiositas.ulusofona.pt/timeline/,1889,1889,1889,A Journey Through Spain/ Cosmorama,Earl's Court,,London,Lon18,"Echo, 15 July 1889",51.49197591851588,-0.1932006420919318,,https://curiositas.ulusofona.pt/wp-content/plugins/curiositas-timeline/images/london/Lon18.png